<?xml version="1.0" encoding="UTF-8"?>
<ndm xmlns:xsi="https://www.w3.org/2001/XMLSchema-instance" xsi:noNamespaceSchemaLocation="https://sanaregistry.org/r/ndmxml/ndmxml-1.0-master.xsd">
<omm id="CCSDS_OMM_VERS" version="2.0">
<header><CREATION_DATE/><ORIGINATOR/></header><body><segment><metadata><OBJECT_NAME>SKYSAT-C19</OBJECT_NAME><OBJECT_ID>2020-057BS</OBJECT_ID><CENTER_NAME>EARTH</CENTER_NAME><REF_FRAME>TEME</REF_FRAME><TIME_SYSTEM>UTC</TIME_SYSTEM><MEAN_ELEMENT_THEORY>SGP4</MEAN_ELEMENT_THEORY></metadata><data><meanElements><EPOCH>2020-09-08T17:48:51.153408</EPOCH><MEAN_MOTION>15.75831309</MEAN_MOTION><ECCENTRICITY>.0016575</ECCENTRICITY><INCLINATION>53.0004</INCLINATION><RA_OF_ASC_NODE>334.5505</RA_OF_ASC_NODE><ARG_OF_PERICENTER>68.9940</ARG_OF_PERICENTER><MEAN_ANOMALY>291.2850</MEAN_ANOMALY></meanElements><tleParameters><EPHEMERIS_TYPE>0</EPHEMERIS_TYPE><CLASSIFICATION_TYPE>U</CLASSIFICATION_TYPE><NORAD_CAT_ID>46235</NORAD_CAT_ID><ELEMENT_SET_NO>999</ELEMENT_SET_NO><REV_AT_EPOCH>299</REV_AT_EPOCH><BSTAR>.59671E-4</BSTAR><MEAN_MOTION_DOT>8.806E-5</MEAN_MOTION_DOT><MEAN_MOTION_DDOT>0</MEAN_MOTION_DDOT></tleParameters></data></segment></body></omm>
<omm id="CCSDS_OMM_VERS" version="2.0">
<header><CREATION_DATE/><ORIGINATOR/></header><body><segment><metadata><OBJECT_NAME>FALCON 9 DEB</OBJECT_NAME><OBJECT_ID>2020-057BT</OBJECT_ID><CENTER_NAME>EARTH</CENTER_NAME><REF_FRAME>TEME</REF_FRAME><TIME_SYSTEM>UTC</TIME_SYSTEM><MEAN_ELEMENT_THEORY>SGP4</MEAN_ELEMENT_THEORY></metadata><data><meanElements><EPOCH>2020-09-09T04:43:52.631616</EPOCH><MEAN_MOTION>16.10072531</MEAN_MOTION><ECCENTRICITY>.0070220</ECCENTRICITY><INCLINATION>52.9978</INCLINATION><RA_OF_ASC_NODE>330.1560</RA_OF_ASC_NODE><ARG_OF_PERICENTER>122.0280</ARG_OF_PERICENTER><MEAN_ANOMALY>238.7600</MEAN_ANOMALY></meanElements><tleParameters><EPHEMERIS_TYPE>0</EPHEMERIS_TYPE><CLASSIFICATION_TYPE>U</CLASSIFICATION_TYPE><NORAD_CAT_ID>46236</NORAD_CAT_ID><ELEMENT_SET_NO>999</ELEMENT_SET_NO><REV_AT_EPOCH>347</REV_AT_EPOCH><BSTAR>.32101E-3</BSTAR><MEAN_MOTION_DOT>4.60922E-3</MEAN_MOTION_DOT><MEAN_MOTION_DDOT>.11590E-4</MEAN_MOTION_DDOT></tleParameters></data></segment></body></omm>
<omm id="CCSDS_OMM_VERS" version="2.0">
<header><CREATION_DATE/><ORIGINATOR/></header><body><segment><metadata><OBJECT_NAME>2020-059A</OBJECT_NAME><OBJECT_ID>2020-059A</OBJECT_ID><CENTER_NAME>EARTH</CENTER_NAME><REF_FRAME>TEME</REF_FRAME><TIME_SYSTEM>UTC</TIME_SYSTEM><MEAN_ELEMENT_THEORY>SGP4</MEAN_ELEMENT_THEORY></metadata><data><meanElements><EPOCH>2020-09-09T05:41:59.828928</EPOCH><MEAN_MOTION>14.86393200</MEAN_MOTION><ECCENTRICITY>.0004501</ECCENTRICITY><INCLINATION>97.8803</INCLINATION><RA_OF_ASC_NODE>76.9884</RA_OF_ASC_NODE><ARG_OF_PERICENTER>138.2461</ARG_OF_PERICENTER><MEAN_ANOMALY>222.0642</MEAN_ANOMALY></meanElements><tleParameters><EPHEMERIS_TYPE>0</EPHEMERIS_TYPE><CLASSIFICATION_TYPE>U</CLASSIFICATION_TYPE><NORAD_CAT_ID>46265</NORAD_CAT_ID><ELEMENT_SET_NO>999</ELEMENT_SET_NO><REV_AT_EPOCH>137</REV_AT_EPOCH><BSTAR>.54017E-2</BSTAR><MEAN_MOTION_DOT>4.7927E-4</MEAN_MOTION_DOT><MEAN_MOTION_DDOT>0</MEAN_MOTION_DDOT></tleParameters></data></segment></body></omm>
<omm id="CCSDS_OMM_VERS" version="2.0">
<header><CREATION_DATE/><ORIGINATOR/></header><body><segment><metadata><OBJECT_NAME>2020-059B</OBJECT_NAME><OBJECT_ID>2020-059B</OBJECT_ID><CENTER_NAME>EARTH</CENTER_NAME><REF_FRAME>TEME</REF_FRAME><TIME_SYSTEM>UTC</TIME_SYSTEM><MEAN_ELEMENT_THEORY>SGP4</MEAN_ELEMENT_THEORY></metadata><data><meanElements><EPOCH>2020-09-08T18:11:29.619744</EPOCH><MEAN_MOTION>14.87884079</MEAN_MOTION><ECCENTRICITY>.0006436</ECCENTRICITY><INCLINATION>97.8846</INCLINATION><RA_OF_ASC_NODE>76.5393</RA_OF_ASC_NODE><ARG_OF_PERICENTER>108.4330</ARG_OF_PERICENTER><MEAN_ANOMALY>251.7591</MEAN_ANOMALY></meanElements><tleParameters><EPHEMERIS_TYPE>0</EPHEMERIS_TYPE><CLASSIFICATION_TYPE>U</CLASSIFICATION_TYPE><NORAD_CAT_ID>46266</NORAD_CAT_ID><ELEMENT_SET_NO>999</ELEMENT_SET_NO><REV_AT_EPOCH>130</REV_AT_EPOCH><BSTAR>.38237E-4</BSTAR><MEAN_MOTION_DOT>2.95E-6</MEAN_MOTION_DOT><MEAN_MOTION_DDOT>0</MEAN_MOTION_DDOT></tleParameters></data></segment></body></omm>
<omm id="CCSDS_OMM_VERS" version="2.0">
<header><CREATION_DATE/><ORIGINATOR/></header><body><segment><metadata><OBJECT_NAME>2020-059C</OBJECT_NAME><OBJECT_ID>2020-059C</OBJECT_ID><CENTER_NAME>EARTH</CENTER_NAME><REF_FRAME>TEME</REF_FRAME><TIME_SYSTEM>UTC</TIME_SYSTEM><MEAN_ELEMENT_THEORY>SGP4</MEAN_ELEMENT_THEORY></metadata><data><meanElements><EPOCH>2020-09-08T18:09:07.613568</EPOCH><MEAN_MOTION>14.88164974</MEAN_MOTION><ECCENTRICITY>.0007476</ECCENTRICITY><INCLINATION>97.8720</INCLINATION><RA_OF_ASC_NODE>76.5287</RA_OF_ASC_NODE><ARG_OF_PERICENTER>115.1176</ARG_OF_PERICENTER><MEAN_ANOMALY>245.0826</MEAN_ANOMALY></meanElements><tleParameters><EPHEMERIS_TYPE>0</EPHEMERIS_TYPE><CLASSIFICATION_TYPE>U</CLASSIFICATION_TYPE><NORAD_CAT_ID>46267</NORAD_CAT_ID><ELEMENT_SET_NO>999</ELEMENT_SET_NO><REV_AT_EPOCH>129</REV_AT_EPOCH><BSTAR>.41829E-4</BSTAR><MEAN_MOTION_DOT>3.3E-6</MEAN_MOTION_DOT><MEAN_MOTION_DDOT>0</MEAN_MOTION_DDOT></tleParameters></data></segment></body></omm>
<omm id="CCSDS_OMM_VERS" version="2.0">
<header><CREATION_DATE/><ORIGINATOR/></header><body><segment><metadata><OBJECT_NAME>CAPELLA-2</OBJECT_NAME><OBJECT_ID>2020-060B</OBJECT_ID><CENTER_NAME>EARTH</CENTER_NAME><REF_FRAME>TEME</REF_FRAME><TIME_SYSTEM>UTC</TIME_SYSTEM><MEAN_ELEMENT_THEORY>SGP4</MEAN_ELEMENT_THEORY></metadata><data><meanElements><EPOCH>2020-09-08T19:45:57.334464</EPOCH><MEAN_MOTION>15.09254134</MEAN_MOTION><ECCENTRICITY>.0011131</ECCENTRICITY><INCLINATION>45.1030</INCLINATION><RA_OF_ASC_NODE>285.0636</RA_OF_ASC_NODE><ARG_OF_PERICENTER>317.5918</ARG_OF_PERICENTER><MEAN_ANOMALY>42.4095</MEAN_ANOMALY></meanElements><tleParameters><EPHEMERIS_TYPE>0</EPHEMERIS_TYPE><CLASSIFICATION_TYPE>U</CLASSIFICATION_TYPE><NORAD_CAT_ID>46269</NORAD_CAT_ID><ELEMENT_SET_NO>999</ELEMENT_SET_NO><REV_AT_EPOCH>131</REV_AT_EPOCH><BSTAR>.23873E-4</BSTAR><MEAN_MOTION_DOT>1.35E-6</MEAN_MOTION_DOT><MEAN_MOTION_DDOT>0</MEAN_MOTION_DDOT></tleParameters></data></segment></body></omm>

</ndm>
