SKYSAT-C19              
1 46235U 20057BS  20252.74225872  .00008806  00000-0  59671-4 0  9996
2 46235  53.0004 334.5505 0016575  68.9940 291.2850 15.75831309  2998
FALCON 9 DEB            
1 46236U 20057BT  20253.19713694  .00460922  11590-4  32101-3 0  9990
2 46236  52.9978 330.1560 0070220 122.0280 238.7600 16.10072531  3473
2020-059A               
1 46265U 20059A   20253.23749802  .00047927  00000-0  54017-2 0  9994
2 46265  97.8803  76.9884 0004501 138.2461 222.0642 14.86393200  1372
2020-059B               
1 46266U 20059B   20252.75798171  .00000295  00000-0  38237-4 0  9999
2 46266  97.8846  76.5393 0006436 108.4330 251.7591 14.87884079  1309
2020-059C               
1 46267U 20059C   20252.75633812  .00000330  00000-0  41829-4 0  9991
2 46267  97.8720  76.5287 0007476 115.1176 245.0826 14.88164974  1292
CAPELLA-2               
1 46269U 20060B   20252.82358026  .00000135  00000-0  23873-4 0  9996
2 46269  45.1030 285.0636 0011131 317.5918  42.4095 15.09254134  1316
